GPS BIIR-08             
1 27663U 03005A   26064.15638334  .00000007  00000+0  00000+0 0  9998
2 27663  54.9072 219.0997 0148735  52.7224 131.3819  2.00566245169226
GPS BIIR-11             
1 28190U 04009A   26063.42812631 -.00000020  00000+0  00000+0 0  9998
2 28190  54.9157 279.9188 0110961 169.0670   5.0968  2.00558098160848
GPS BIIR-13             
1 28474U 04045A   26064.14636715 -.00000094  00000+0  00000+0 0  9991
2 28474  55.1943 329.0893 0170840 312.8581  83.3458  2.00573460156343
GPS BIIR-14M            
1 28874U 05038A   26063.66238218 -.00000018  00000+0  00000+0 0  9996
2 28874  54.9628 277.3946 0128798 295.3469  71.7592  2.00572995149741
METEOSAT-9 (MSG-2)      
1 28912U 05049B   26064.07544802  .00000118  00000+0  00000+0 0  9996
2 28912   9.1265  55.1755 0001712 222.7266 317.8188  1.00277671  5959
GPS BIIR-16M            
1 29601U 06052A   26063.71240001  .00000002  00000+0  00000+0 0  9993
2 29601  54.9572 218.1449 0087863  89.3643 271.5921  2.00551664141312
GPS BIIR-17M            
1 32260U 07047A   26064.01919554 -.00000008  00000+0  00000+0 0  9990
2 32260  54.0162  84.3580 0163608  85.9640 275.9610  2.00560713134728
GPS BIIR-18M            
1 32384U 07062A   26064.08231703 -.00000020  00000+0  00000+0 0  9998
2 32384  55.1143 278.3362 0032945 160.6669  12.9552  2.00553591133426
GOES 14                 
1 35491U 09033A   26064.26651062  .00000119  00000+0  00000+0 0  9992
2 35491   1.4211  84.4101 0002301 300.2805  75.6316  1.00124871  5552
GOES 15                 
1 36411U 10008A   26064.18725389  .00000013  00000+0  00000+0 0  9997
2 36411   1.0108  85.1296 0001932  19.6467 189.0339  1.00269479 58594
GSAT0101 (GALILEO-PFM)  
1 37846U 11060A   26053.46432651 -.00000082  00000+0  00000+0 0  9992
2 37846  57.0318 344.8758 0003975 357.0591   2.9533  1.70475478 89166
GSAT0102 (GALILEO-FM2)  
1 37847U 11060B   26060.06318653 -.00000106  00000+0  00000+0 0  9999
2 37847  57.0301 344.6971 0005422 341.2092 154.1953  1.70475778 89286
LUCH 5A                 
1 37951U 11074B   26064.33107759 -.00000052  00000+0  00000+0 0  9997
2 37951   8.4896  75.3323 0003940 246.4395 127.5868  1.00275710 52012
METEOSAT-10 (MSG-3)     
1 38552U 12035B   26064.22673045 -.00000011  00000+0  00000+0 0  9992
2 38552   4.4256  61.4601 0002511 296.4567 246.9694  1.00277685 49810
SARSAT 13 (METOP-B)     
1 38771U 12049A   26064.22157406  .00000172  00000+0  98496-4 0  9996
2 38771  98.6651 117.7299 0001200 290.4699  69.6349 14.21443047698494
GPS BIIF-3              
1 38833U 12053A   26063.11837641  .00000006  00000+0  00000+0 0  9998
2 38833  53.5658 147.9052 0176935  64.7808 297.0848  2.00565801 97338
GSAT0103 (GALILEO-FM3)  
1 38857U 12055A   26063.47673480  .00000012  00000+0  00000+0 0  9991
2 38857  55.7384 104.4182 0005407 285.3640  74.6606  1.70473427 83228
